[Satellite]
VERSION=1.1
NAME=IRIDIUM 103 [+]
NICKNAME=IRIDIUM 103 [+]
TLE1=1 41918U 17003B   18020.89591059  .00000091  00000-0  25427-4 0  9995
TLE2=2 41918  86.3985 290.9896 0002091  66.3697 293.7718 14.34216932 53310
